{
  "type": "FeatureCollection",
  "features": [
    {
      "type": "Feature",
      "properties": {
        "norad_id": 44333,
        "name": "AT&T T-16",
        "group": "intelsat",
        "lat": -0.001415721233081438,
        "lon": 178.8705885794531,
        "alt_km": 35785.18179035556,
        "timestamp": "2025-12-02T13:52:16.943514+00:00",
        "meta_object_name": "AT&T T-16",
        "meta_object_id": "2019-034A",
        "meta_epoch": "2025-12-02T04:44:39.482880",
        "meta_mean_motion": 1.00267749,
        "meta_eccentricity": 5.201e-05,
        "meta_inclination": 0.0259,
        "meta_ra_of_asc_node": 61.9247,
        "meta_arg_of_pericenter": 96.1901,
        "meta_mean_anomaly": 243.5063,
        "meta_ephemeris_type": 0,
        "meta_classification_type": "U",
        "meta_norad_cat_id": 44333,
        "meta_element_set_no": 999,
        "meta_rev_at_epoch": 2365,
        "meta_bstar": 0,
        "meta_mean_motion_dot": -9.4e-07,
        "meta_mean_motion_ddot": 0,
        "tle_line1": "1 44333U 19034A   25336.19767920 -.00000094  00000+0  00000+0 0  9996",
        "tle_line2": "2 44333   0.0259  61.9247 0000520  96.1901 243.5063  1.00267749 23652"
      },
      "geometry": {
        "type": "Point",
        "coordinates": [
          178.8705885794531,
          -0.001415721233081438
        ]
      }
    },
    {
      "type": "Feature",
      "properties": {
        "norad_id": 44476,
        "name": "INTELSAT 39 (IS-39)",
        "group": "intelsat",
        "lat": 0.02110433268453889,
        "lon": -18.311028802489687,
        "alt_km": 35787.05631367778,
        "timestamp": "2025-12-02T13:52:16.943525+00:00",
        "meta_object_name": "INTELSAT 39 (IS-39)",
        "meta_object_id": "2019-049B",
        "meta_epoch": "2025-12-01T21:58:38.459424",
        "meta_mean_motion": 1.00276327,
        "meta_eccentricity": 5.565e-05,
        "meta_inclination": 0.0163,
        "meta_ra_of_asc_node": 308.3282,
        "meta_arg_of_pericenter": 224.0067,
        "meta_mean_anomaly": 290.3068,
        "meta_ephemeris_type": 0,
        "meta_classification_type": "U",
        "meta_norad_cat_id": 44476,
        "meta_element_set_no": 999,
        "meta_rev_at_epoch": 2315,
        "meta_bstar": 0,
        "meta_mean_motion_dot": 5.4e-07,
        "meta_mean_motion_ddot": 0,
        "tle_line1": "1 44476U 19049B   25335.91572291  .00000054  00000+0  00000+0 0  9999",
        "tle_line2": "2 44476   0.0163 308.3282 0000556 224.0067 290.3068  1.00276327 23157"
      },
      "geometry": {
        "type": "Point",
        "coordinates": [
          -18.311028802489687,
          0.02110433268453889
        ]
      }
    },
    {
      "type": "Feature",
      "properties": {
        "norad_id": 46114,
        "name": "GALAXY 30 (G-30)",
        "group": "intelsat",
        "lat": -0.020665846985383356,
        "lon": 154.70098753532136,
        "alt_km": 35786.746278721155,
        "timestamp": "2025-12-02T13:52:16.943537+00:00",
        "meta_object_name": "GALAXY 30 (G-30)",
        "meta_object_id": "2020-056C",
        "meta_epoch": "2025-12-01T20:42:04.934304",
        "meta_mean_motion": 1.0027242,
        "meta_eccentricity": 0.0002369,
        "meta_inclination": 0.0148,
        "meta_ra_of_asc_node": 292.7027,
        "meta_arg_of_pericenter": 317.0993,
        "meta_mean_anomaly": 6.6971,
        "meta_ephemeris_type": 0,
        "meta_classification_type": "U",
        "meta_norad_cat_id": 46114,
        "meta_element_set_no": 999,
        "meta_rev_at_epoch": 1931,
        "meta_bstar": 0,
        "meta_mean_motion_dot": 5.8e-07,
        "meta_mean_motion_ddot": 0,
        "tle_line1": "1 46114U 20056C   25335.86255711  .00000058  00000+0  00000+0 0  9993",
        "tle_line2": "2 46114   0.0148 292.7027 0002369 317.0993   6.6971  1.00272420 19313"
      },
      "geometry": {
        "type": "Point",
        "coordinates": [
          154.70098753532136,
          -0.020665846985383356
        ]
      }
    },
    {
      "type": "Feature",
      "properties": {
        "norad_id": 54026,
        "name": "GALAXY 33 (G-33)",
        "group": "intelsat",
        "lat": -0.0025188187875308317,
        "lon": 146.708645921645,
        "alt_km": 35787.25259414998,
        "timestamp": "2025-12-02T13:52:16.943549+00:00",
        "meta_object_name": "GALAXY 33 (G-33)",
        "meta_object_id": "2022-128A",
        "meta_epoch": "2025-12-02T05:52:09.170112",
        "meta_mean_motion": 1.00272337,
        "meta_eccentricity": 0.00019361,
        "meta_inclination": 0.0132,
        "meta_ra_of_asc_node": 330.4364,
        "meta_arg_of_pericenter": 275.7638,
        "meta_mean_anomaly": 140.1968,
        "meta_ephemeris_type": 0,
        "meta_classification_type": "U",
        "meta_norad_cat_id": 54026,
        "meta_element_set_no": 999,
        "meta_rev_at_epoch": 1176,
        "meta_bstar": 0,
        "meta_mean_motion_dot": 1e-06,
        "meta_mean_motion_ddot": 0,
        "tle_line1": "1 54026U 22128A   25336.24455058  .00000100  00000+0  00000+0 0  9993",
        "tle_line2": "2 54026   0.0132 330.4364 0001936 275.7638 140.1968  1.00272337 11764"
      },
      "geometry": {
        "type": "Point",
        "coordinates": [
          146.708645921645,
          -0.0025188187875308317
        ]
      }
    },
    {
      "type": "Feature",
      "properties": {
        "norad_id": 54027,
        "name": "GALAXY 34 (G-34)",
        "group": "intelsat",
        "lat": -0.010687547751728923,
        "lon": 150.70931705243228,
        "alt_km": 35786.3011363153,
        "timestamp": "2025-12-02T13:52:16.943561+00:00",
        "meta_object_name": "GALAXY 34 (G-34)",
        "meta_object_id": "2022-128B",
        "meta_epoch": "2025-12-01T20:45:55.897056",
        "meta_mean_motion": 1.00272949,
        "meta_eccentricity": 0.00014277,
        "meta_inclination": 0.015,
        "meta_ra_of_asc_node": 316.5626,
        "meta_arg_of_pericenter": 289.8338,
        "meta_mean_anomaly": 7.0638,
        "meta_ephemeris_type": 0,
        "meta_classification_type": "U",
        "meta_norad_cat_id": 54027,
        "meta_element_set_no": 999,
        "meta_rev_at_epoch": 1193,
        "meta_bstar": 0,
        "meta_mean_motion_dot": 8e-07,
        "meta_mean_motion_ddot": 0,
        "tle_line1": "1 54027U 22128B   25335.86523029  .00000080  00000+0  00000+0 0  9992",
        "tle_line2": "2 54027   0.0150 316.5626 0001427 289.8338   7.0638  1.00272949 11932"
      },
      "geometry": {
        "type": "Point",
        "coordinates": [
          150.70931705243228,
          -0.010687547751728923
        ]
      }
    },
    {
      "type": "Feature",
      "properties": {
        "norad_id": 54243,
        "name": "GALAXY 31 (G-31)",
        "group": "intelsat",
        "lat": -0.01053830050717101,
        "lon": 158.6767720505482,
        "alt_km": 35788.77710991652,
        "timestamp": "2025-12-02T13:52:16.943573+00:00",
        "meta_object_name": "GALAXY 31 (G-31)",
        "meta_object_id": "2022-153A",
        "meta_epoch": "2025-12-02T04:38:55.032864",
        "meta_mean_motion": 1.0027149,
        "meta_eccentricity": 0.00020805,
        "meta_inclination": 0.0124,
        "meta_ra_of_asc_node": 328.3348,
        "meta_arg_of_pericenter": 297.9075,
        "meta_mean_anomaly": 113.7657,
        "meta_ephemeris_type": 0,
        "meta_classification_type": "U",
        "meta_norad_cat_id": 54243,
        "meta_element_set_no": 999,
        "meta_rev_at_epoch": 515,
        "meta_bstar": 0,
        "meta_mean_motion_dot": 0,
        "meta_mean_motion_ddot": 0,
        "tle_line1": "1 54243U 22153A   25336.19369251  .00000000  00000+0  00000+0 0  9994",
        "tle_line2": "2 54243   0.0124 328.3348 0002080 297.9075 113.7657  1.00271490  5152"
      },
      "geometry": {
        "type": "Point",
        "coordinates": [
          158.6767720505482,
          -0.01053830050717101
        ]
      }
    },
    {
      "type": "Feature",
      "properties": {
        "norad_id": 54244,
        "name": "GALAXY 32 (G-32)",
        "group": "intelsat",
        "lat": -0.02651663918026946,
        "lon": -171.29722790388624,
        "alt_km": 35790.8123899847,
        "timestamp": "2025-12-02T13:52:16.943584+00:00",
        "meta_object_name": "GALAXY 32 (G-32)",
        "meta_object_id": "2022-153B",
        "meta_epoch": "2025-12-01T21:56:31.607808",
        "meta_mean_motion": 1.00270413,
        "meta_eccentricity": 0.00024074,
        "meta_inclination": 0.0099,
        "meta_ra_of_asc_node": 319.0014,
        "meta_arg_of_pericenter": 345.1188,
        "meta_mean_anomaly": 5.0458,
        "meta_ephemeris_type": 0,
        "meta_classification_type": "U",
        "meta_norad_cat_id": 54244,
        "meta_element_set_no": 999,
        "meta_rev_at_epoch": 1116,
        "meta_bstar": 0,
        "meta_mean_motion_dot": -1.53e-06,
        "meta_mean_motion_ddot": 0,
        "tle_line1": "1 54244U 22153B   25335.91425472 -.00000153  00000+0  00000+0 0  9992",
        "tle_line2": "2 54244   0.0099 319.0014 0002407 345.1188   5.0458  1.00270413 11169"
      },
      "geometry": {
        "type": "Point",
        "coordinates": [
          -171.29722790388624,
          -0.02651663918026946
        ]
      }
    }
  ]
}